STARLINK-30313          
1 57676U 23124P   26193.68628902 -.00000312  00000+0  15885-5 0  9993
2 57676  53.1607 346.3864 0000857  75.7804 284.3292 15.30199240162700
STARLINK-30303          
1 57677U 23124Q   26194.25003472  .00041896  00000+0  12454-2 0  9994
2 57677  53.1603 343.1873 0000891  95.3550  47.9486 15.34369442  5864
STARLINK-30320          
1 57678U 23124R   26193.65829673  .00001602  00000+0  58560-4 0  9998
2 57678  53.1620 332.0195 0001241  90.3058 269.8087 15.34392237162905
STARLINK-30321          
1 57679U 23124S   26193.82697529  .00002185  00000+0  75780-4 0  9991
2 57679  53.1628 345.0958 0001273  98.0864 262.0283 15.34407529162735
STARLINK-30283          
1 57680U 23124T   26194.25003472  .00089530  00000+0  26604-2 0  9997
2 57680  53.1609 343.7233 0001159  86.4920 130.6707 15.34030854  5813
STARLINK-30273          
1 57681U 23124U   26192.60852548  .00006011  00000+0  20516-3 0  9991
2 57681  53.1606 350.6966 0001228  93.0005 267.1137 15.31724174162545
STARLINK-30297          
1 57682U 23124V   26193.82010379  .00028575  00000+0  97238-3 0  9999
2 57682  53.1621 345.7978 0001055  99.3656 260.7464 15.30226927162724
STARLINK-30295          
1 57683U 23124W   26193.71355589  .00010225  00000+0  31330-3 0  9997
2 57683  53.1587 345.7592 0000834  93.6169 266.4929 15.34404611162718
CAPELLA-11 (ACADIA-1)   
1 57693U 23126A   26192.95697390  .00002295  00000+0  29447-3 0  9998
2 57693  53.0124  77.3551 0002531 139.8162 220.3005 14.84836023155806
JILIN-1 KUANFU 02A      
1 57696U 23127A   26194.29839533  .00002064  00000+0  12803-3 0  9990
2 57696  97.5571 287.7870 0010161 244.0496 115.9687 15.10802778159579
STARLINK-30288          
1 57698U 23129A   26194.20228633  .00000298  00000+0  20354-4 0  9996
2 57698  43.0027 129.4573 0001127 272.2038  87.8684 15.27574257159875
STARLINK-30347          
1 57699U 23129B   26193.83428692 -.00000462  00000+0 -72770-5 0  9997
2 57699  43.0031 119.9210 0000955 275.5305  84.5438 15.27580048159959
STARLINK-30332          
1 57700U 23129C   26194.22699729  .00000593  00000+0  31090-4 0  9997
2 57700  43.0044 136.4367 0001425 270.8365  89.2324 15.27577770159651
STARLINK-30345          
1 57701U 23129D   26194.23169679  .00001905  00000+0  78722-4 0  9996
2 57701  43.0019 128.8260 0001197 274.5742  85.4973 15.27580352159745
STARLINK-30333          
1 57702U 23129E   26194.01626577  .00000641  00000+0  32811-4 0  9993
2 57702  43.0034 129.7913 0001257 273.3604  86.7103 15.27578473159851
STARLINK-30336          
1 57703U 23129F   26194.23812036  .00001090  00000+0  49132-4 0  9998
2 57703  43.0023 128.8729 0001278 264.7892  95.2813 15.27579381159741
STARLINK-30346          
1 57704U 23129G   26194.15474870  .00002301  00000+0  93142-4 0  9996
2 57704  43.0026 129.1103 0000941 268.0141  92.0603 15.27569937159732
STARLINK-30327          
1 57707U 23129K   26193.92050249  .00047548  00000+0  10351-2 0  9994
2 57707  42.9930  90.7005 0028648 195.6007 164.3969 15.43108249160161
STARLINK-30315          
1 57708U 23129L   26193.25346949  .00000370  00000+0  22983-4 0  9994
2 57708  43.0017 134.3780 0001491 256.6765 103.3921 15.27573093159738
STARLINK-30287          
1 57709U 23129M   26194.22398442 -.00000389  00000+0 -46215-5 0  9995
2 57709  43.0017 128.7677 0001476 279.4795  80.5890 15.27575534159889
STARLINK-30335          
1 57710U 23129N   26194.22784261  .00000360  00000+0  22608-4 0  9991
2 57710  43.0016 128.7908 0001163 268.9393  91.1325 15.27576227159888
STARLINK-30318          
1 57711U 23129P   26194.15088662  .00001129  00000+0  50559-4 0  9996
2 57711  43.0032 129.0656 0001476 275.1143  84.9540 15.27578189159733
STARLINK-30348          
1 57712U 23129Q   26194.18044617  .00008534  00000+0  31931-3 0  9991
2 57712  42.9954 129.2948 0002000 240.4480 119.6172 15.27576372159878
STARLINK-30349          
1 57713U 23129R   26193.99199547  .00000987  00000+0  45387-4 0  9998
2 57713  43.0019 130.4581 0000693 286.9243  73.1532 15.27578671159708
STARLINK-30341          
1 57714U 23129S   26194.23248070  .00001261  00000+0  55357-4 0  9997
2 57714  43.0038 132.2208 0001859 255.6360 104.4286 15.27578747159847
STARLINK-30300          
1 57715U 23129T   26194.24197688  .00004948  00000+0  18928-3 0  9994
2 57715  43.0041 128.8916 0001766 250.6469 109.4192 15.27570830159881
STARLINK-30281          
1 57716U 23129U   26194.19842779  .00001395  00000+0  60206-4 0  9997
2 57716  43.0026 129.4296 0000946 273.0176  87.0568 15.27582616159733
STARLINK-30325          
1 57717U 23129V   26194.24968344  .00000739  00000+0  36369-4 0  9995
2 57717  43.0018 128.9503 0001362 254.5342 105.5360 15.27577678159886
STARLINK-30338          
1 57718U 23129W   26194.19458558  .00002238  00000+0  90815-4 0  9993
2 57718  43.0013 129.3978 0001253 276.5783  83.4926 15.27581962159877
STARLINK-30334          
1 57719U 23129X   26194.19072258  .00000603  00000+0  31438-4 0  9993
2 57719  43.0029 129.3673 0000953 268.8563  91.2179 15.27585680159725
