OBJECT_NAME,OBJECT_ID,EPOCH,MEAN_MOTION,ECCENTRICITY,INCLINATION,RA_OF_ASC_NODE,ARG_OF_PERICENTER,MEAN_ANOMALY,EPHEMERIS_TYPE,CLASSIFICATION_TYPE,NORAD_CAT_ID,ELEMENT_SET_NO,REV_AT_EPOCH,BSTAR,MEAN_MOTION_DOT,MEAN_MOTION_DDOT
STARLINK-30313,2023-124P,2026-07-12T16:28:15.371328,15.30199240,.00008576,53.1607,346.3864,75.7804,284.3292,0,U,57676,999,16270,.1588473E-5,-.312E-5,0
STARLINK-30303,2023-124Q,2026-07-13T06:00:02.999808,15.34369442,.00008918,53.1603,343.1873,95.3550,47.9486,0,U,57677,999,586,.12453917E-2,.41896E-3,0
STARLINK-30320,2023-124R,2026-07-12T15:47:56.837472,15.34392237,.00012415,53.1620,332.0195,90.3058,269.8087,0,U,57678,999,16290,.58560379E-4,.1602E-4,0
STARLINK-30321,2023-124S,2026-07-12T19:50:50.665056,15.34407529,.00012735,53.1628,345.0958,98.0864,262.0283,0,U,57679,999,16273,.75780015E-4,.2185E-4,0
STARLINK-30283,2023-124T,2026-07-13T06:00:02.999808,15.34030854,.00011599,53.1609,343.7233,86.4920,130.6707,0,U,57680,999,581,.26603972E-2,.8953E-3,0
STARLINK-30273,2023-124U,2026-07-11T14:36:16.601472,15.31724174,.00012284,53.1606,350.6966,93.0005,267.1137,0,U,57681,999,16254,.20515525E-3,.6011E-4,0
STARLINK-30297,2023-124V,2026-07-12T19:40:56.967456,15.30226927,.00010557,53.1621,345.7978,99.3656,260.7464,0,U,57682,999,16272,.97238174E-3,.28575E-3,0
STARLINK-30295,2023-124W,2026-07-12T17:07:31.228896,15.34404611,.00008349,53.1587,345.7592,93.6169,266.4929,0,U,57683,999,16271,.3133031E-3,.10225E-3,0
CAPELLA-11 (ACADIA-1),2023-126A,2026-07-11T22:58:02.544960,14.84836023,.0002531,53.0124,77.3551,139.8162,220.3005,0,U,57693,999,15580,.29447E-3,.2295E-4,0
JILIN-1 KUANFU 02A,2023-127A,2026-07-13T07:09:41.356512,15.10802778,.0010161,97.5571,287.7870,244.0496,115.9687,0,U,57696,999,15957,.12802989E-3,.2064E-4,0
STARLINK-30288,2023-129A,2026-07-13T04:51:17.538912,15.27574257,.00011278,43.0027,129.4573,272.2038,87.8684,0,U,57698,999,15987,.20354394E-4,.298E-5,0
STARLINK-30347,2023-129B,2026-07-12T20:01:22.389888,15.27580048,.00009553,43.0031,119.9210,275.5305,84.5438,0,U,57699,999,15995,-.7277048E-5,-.462E-5,0
STARLINK-30332,2023-129C,2026-07-13T05:26:52.565856,15.27577770,.00014259,43.0044,136.4367,270.8365,89.2324,0,U,57700,999,15965,.31090432E-4,.593E-5,0
STARLINK-30345,2023-129D,2026-07-13T05:33:38.602656,15.27580352,.00011974,43.0019,128.8260,274.5742,85.4973,0,U,57701,999,15974,.78721806E-4,.1905E-4,0
STARLINK-30333,2023-129E,2026-07-13T00:23:25.362528,15.27578473,.00012573,43.0034,129.7913,273.3604,86.7103,0,U,57702,999,15985,.32811011E-4,.641E-5,0
STARLINK-30336,2023-129F,2026-07-13T05:42:53.599104,15.27579381,.00012786,43.0023,128.8729,264.7892,95.2813,0,U,57703,999,15974,.49132398E-4,.109E-4,0
STARLINK-30346,2023-129G,2026-07-13T03:42:50.287680,15.27569937,.00009417,43.0026,129.1103,268.0141,92.0603,0,U,57704,999,15973,.93141615E-4,.2301E-4,0
STARLINK-30327,2023-129K,2026-07-12T22:05:31.415136,15.43108249,.00286481,42.9930,90.7005,195.6007,164.3969,0,U,57707,999,16016,.10351327E-2,.47548E-3,0
STARLINK-30315,2023-129L,2026-07-12T06:04:59.763936,15.27573093,.0001491,43.0017,134.3780,256.6765,103.3921,0,U,57708,999,15973,.22983E-4,.37E-5,0
STARLINK-30287,2023-129M,2026-07-13T05:22:32.253888,15.27575534,.00014766,43.0017,128.7677,279.4795,80.5890,0,U,57709,999,15988,-.4621488E-5,-.389E-5,0
STARLINK-30335,2023-129N,2026-07-13T05:28:05.601504,15.27576227,.0001163,43.0016,128.7908,268.9393,91.1325,0,U,57710,999,15988,.22608305E-4,.36E-5,0
STARLINK-30318,2023-129P,2026-07-13T03:37:16.603968,15.27578189,.00014762,43.0032,129.0656,275.1143,84.9540,0,U,57711,999,15973,.50558791E-4,.1129E-4,0
STARLINK-30348,2023-129Q,2026-07-13T04:19:50.549088,15.27576372,.00020003,42.9954,129.2948,240.4480,119.6172,0,U,57712,999,15987,.31930616E-3,.8534E-4,0
STARLINK-30349,2023-129R,2026-07-12T23:48:28.408608,15.27578671,.00006938,43.0019,130.4581,286.9243,73.1532,0,U,57713,999,15970,.4538734E-4,.987E-5,0
STARLINK-30341,2023-129S,2026-07-13T05:34:46.332480,15.27578747,.00018599,43.0038,132.2208,255.6360,104.4286,0,U,57714,999,15984,.55357458E-4,.1261E-4,0
STARLINK-30300,2023-129T,2026-07-13T05:48:26.802432,15.27570830,.00017669,43.0041,128.8916,250.6469,109.4192,0,U,57715,999,15988,.1892794E-3,.4948E-4,0
STARLINK-30281,2023-129U,2026-07-13T04:45:44.161056,15.27582616,.00009464,43.0026,129.4296,273.0176,87.0568,0,U,57716,999,15973,.60206022E-4,.1395E-4,0
STARLINK-30325,2023-129V,2026-07-13T05:59:32.649216,15.27577678,.00013629,43.0018,128.9503,254.5342,105.5360,0,U,57717,999,15988,.36369042E-4,.739E-5,0
STARLINK-30338,2023-129W,2026-07-13T04:40:12.194112,15.27581962,.00012536,43.0013,129.3978,276.5783,83.4926,0,U,57718,999,15987,.90815032E-4,.2238E-4,0
STARLINK-30334,2023-129X,2026-07-13T04:34:38.430912,15.27585680,.00009532,43.0029,129.3673,268.8563,91.2179,0,U,57719,999,15972,.31438171E-4,.603E-5,0
